STRIX-1                 
1 53815U 22113A   26189.94778913  .00016054  00000+0  39353-3 0  9996
2 53815  97.4484 252.3723 0005209 148.3919 211.7641 15.40798790210796
STRIX-3                 
1 59224U 24047A   26189.97492545  .00005397  00000+0  25529-3 0  9999
2 59224  97.6629 165.9772 0012751 357.2756   2.8406 15.19742571128059
STRIX-4                 
1 60352U 24137A   26189.98304633  .00009845  00000+0  30783-3 0  9994
2 60352  43.0142 160.9450 0015742  87.8740 272.3916 15.33179135107365
STRIX-2                 
1 62406U 24248A   26189.95535154  .00004310  00000+0  27501-3 0  9996
2 62406  97.6292 145.4728 0013605 260.0144  99.9549 15.09150417 84873
STRIX-5                 
1 65971U 25229A   26189.94396446  .00001861  00000+0  14219-3 0  9994
2 65971  41.9264 166.7382 0037166 197.4091 162.5462 15.04562325 40253
STRIX-6                 
1 68291U 26056A   26189.44220028  .00001594  00000+0  14643-3 0  9992
2 68291  50.2820 249.3120 0016558 325.3377  34.6492 15.00308954 16461
STRIX-7                 
1 69177U 26112A   26189.92815188  .00002565  00000+0  21148-3 0  9996
2 69177  44.9076  78.2504 0023991 173.0885 187.0322 15.01578195  7141
STRIX-8                 
1 69701U 26146A   26189.91178248  .00002869  00000+0  21529-3 0  9994
2 69701  41.9901  47.8997 0008201 341.2664  18.7860 15.04398794  1832
